#dP2020  1 30  0  0  0.00000000      96 __u+U ITR00 FIT  IAC
## 2090 345600.00000000   900.00000000 58878 0.0000000000000
+  106   C06C07C08C09C10C11C12C13C14C16C19C20C21C22C23C24C25
+        C26C27C28C29C30C32C33C34C35C36C37E01E02E03E04E05E07
+        E08E09E11E12E13E14E15E18E19E21E24E25E26E27E30E31E33
+        E36G01G02G03G04G05G06G07G08G09G10G11G12G13G14G15G16
+        G17G18G19G20G21G22G23G24G25G26G27G28G29G30G31G32R01
+        R02R03R04R05R07R08R09R11R12R13R14R15R16R17R18R19R20
+        R21R22R23R26  0  0  0  0  0  0  0  0  0  0  0  0  0
++         8  9  9  8  8  8  8  9  8  8  8  8  8  8  8  8  8
++         8  8  8  8  8  8  8  8  8  8  8  4  4  4  4  4  4
++         4  4  5  5  4  4  4  4  4  4  5  5  4  4  4  4  5
++         4  3  3  3  4  4  3  3  3  3  3  3  3  3  4  3  4
++         3  4  3  3  4  3  3  3  4  3  3  3  4  3  4  3  6
++         5  6  6  6  5  5  5  6  6  6  5  5  6  5  5  6  6
++         6  5  5  8  0  0  0  0  0  0  0  0  0  0  0  0  0
%c M  cc GPS ccc cccc cccc cccc cccc ccccc ccccc ccccc ccccc
%c cc cc ccc ccc cccc cccc cccc cccc ccccc ccccc ccccc ccccc
%f  0.0000000  0.000000000  0.00000000000  0.000000000000000
%f  0.0000000  0.000000000  0.00000000000  0.000000000000000
%i    0    0    0    0      0      0      0      0         0
%i    0    0    0    0      0      0      0      0         0
/* INFORMATION & ANALYSIS CENTER (IAC)      ULTRA-RAPID DATA
/* S/V CLOCKS ARE ALIGNED TO GNSS TIME                      
/* G:C1WC2W R:C1PC2P E:C1XC5X C:C2IC6I J:C1CC2S             
/* PCV:IGS14_2086 OL/AL:FES2004  NONE     YN ORB:CoN CLK:CoN
*  2020 01 30 17 15  0.00000000
PC06 -23137.318311  27565.312827 -21961.779627    252.482087
PC07 -11685.852683  37989.511697 -13201.666653     54.818768
PC08  -7332.915003  21110.386136  35874.111873   -100.507590
PC09 -10583.335016  27351.332183 -30189.366017    298.792188
PC10  -2460.461555  41820.316950  -1748.137966   -611.652572
PC11 -14337.397455 -12119.059969 -20563.925183   -152.374365
PC12   7081.472117 -15454.242539 -22094.583231    313.915914
PC13   5641.806222  28223.468554  30998.906886    237.211477
PC14  -6263.882546 -19437.805483  19066.960942    119.229247
PC16 -21284.867770  27848.215557 -23548.067149   -811.722991
PC19  12397.717958  10864.893323 -22493.209263    312.233002
PC20   -392.373399  24572.809947 -13183.635116   -634.946619
PC21  13417.961329 -24101.436106  -4265.943312    -28.069359
PC22  18262.730639  -9421.992631 -18889.442124   -765.841158
PC23 -18884.759656  -1164.030963 -20510.719175   -880.416044
PC24  -8926.063947 -24398.744774  10137.685879   -912.590866
PC25 -20365.189179 -17430.751465  -7724.653785   -499.129360
PC26   6062.694108 -16896.407043  21350.890994    553.205574
PC27 -16923.281088  13795.883467  17381.088883    269.794205
PC28 -27570.463005   3954.465116   1682.333131    260.735679
PC29  22396.341487   7333.215111  14942.843929    180.947448
PC30   3879.332972  15484.650926  22892.840239    264.328701
PC32 -13259.365668  24175.807631   4295.808161   -862.107461
PC33 -12441.185083 -10910.866146  22475.649863   -845.940182
PC34  -4344.253834 -15449.275445 -22829.887066   -431.669048
PC35  27429.480665  -4791.841915  -1534.849841   -822.770072
PC36  19910.649865  18045.783346   7550.243493   -837.424243
PC37  -6909.888614  16328.637661 -21538.509430   -897.693075
PE01 -13029.831130 -23970.687290 -11470.531027   -784.512326
PE02  13062.832773  23940.557232  11527.784990    109.336112
PE03  10717.150236  13398.360739 -24125.470283   -260.826518
PE04 -23267.327879   4110.856928  17830.479156   -455.945562
PE05  -8271.047001  23256.155557 -16341.126699   -409.623510
PE07  22295.670655 -19454.097766   -940.834047   -334.139673
PE08  23233.058860  -4530.745768 -17782.503590   6227.358058
PE09 -22116.495467  19643.219468    873.628039   6172.087229
PE11 -19389.230897   8409.122522  20735.204827   1032.031915
PE12 -28705.988048  -5492.329916   4758.841282   5975.731823
PE13  19523.944853  -8275.650299 -20636.125884    397.883915
PE14   2535.452691  14792.213169  17851.518821   -887.103251
PE15  28703.678685   5252.407525  -4943.117043    879.009080
PE18  -5275.656253 -20127.912469 -25146.246713   -984.132268
PE19  -8715.233348 -14884.497284  24053.979741     -1.752672
PE21  -1424.998150 -28667.136267   7217.550203   -579.939686
PE24 -11341.276509  16513.921454 -21812.040410   5635.916769
PE25   1355.981069  28653.465572  -7314.860436   -502.589692
PE26  -1285.535026 -17181.469123 -24056.043175   3586.472436
PE27  11190.185285 -16577.273871  21818.302729    292.750279
PE30  17198.741166   5455.323708  23459.333810   4182.895523
PE31 -17173.342419  -5180.186486 -23539.433508   -471.524245
PE33 -21064.048309 -15695.623599 -13635.247888   -470.673340
PE36   1112.733898  16964.515841  24243.320322    604.640224
PG01 -22258.517249 -14788.518364    738.312506   -279.131740
PG02   6665.419053  18793.621923  18228.930670   -395.665062
PG03 -13250.189934 -10861.721429  20261.812782    -83.422715
PG04 -20211.339286  -3910.413785  16802.353460    -41.819934
PG05   2937.993817  25685.831608  -5751.287322     -6.850030
PG06  -6002.314318  13788.431496  21945.337215   -195.931688
PG07 -21704.548403  -2012.908023 -15211.396357   -203.564721
PG08 -11312.501234 -10790.189816 -21471.390713    -22.040722
PG09 -24487.170416   5248.463718   8820.260371   -144.408538
PG10  11555.252838 -18676.566835 -14692.503289   -227.936700
PG11 -20519.375483 -12128.910282 -11865.217707   -375.256018
PG12  10622.047611  15127.627156  18914.974852    156.675831
PG13   2163.118922  15135.296132 -21836.879230    -16.357005
PG14  11958.726568 -17112.691361  16638.827277    -35.563817
PG15  13445.301911  10119.122838 -20916.710347   -254.994178
PG16    189.602910 -25685.650584  -5939.955866   -119.137886
PG17 -20409.522904  14763.871420   8754.749339    207.644281
PG18 -18479.828922 -17668.590466  -7864.485323    116.652714
PG19 -15294.730389  15860.833182  14543.524019   -205.401860
PG20  14753.846444  -8331.945323 -20499.639614    527.843956
PG21  20344.258849  -1305.295967 -16101.893629    -48.165909
PG22 -11662.260983 -18415.028891  15470.558356   -783.481236
PG23 -21301.527934  -2382.072242  16277.371457   -139.670141
PG24  22265.563485  14772.095852  -1642.729587     -8.304544
PG25  14924.864769   1092.001183  21714.730106    -14.735684
PG26   4274.533877 -25719.298647   4389.430942    138.179557
PG27    645.376364 -16124.087319 -21147.728318   -196.612273
PG28 -12065.865025  19525.852426 -12888.188638    742.261972
PG29  24595.080346  -3057.680318   9542.099799    -20.643360
PG30 -14361.705089   8289.005631 -20754.091245   -141.467332
PG31   4211.164401 -15326.959283  21175.443089    -19.965139
PG32  19260.147373 -16120.801310   8483.579462    199.225914
PR01  16648.555578 -13746.361357 -13596.959662     56.369808
PR02  10843.220795 -21981.421393   6994.569636    409.553031
PR03  -1484.509311 -15263.049625  20404.628488      9.166417
PR04 -12642.043439    191.021261  22176.371494     37.109585
PR05 -16799.194411  15496.920053  11357.226640     44.103597
PR07   1787.586134  14935.799323 -20582.156201    -32.623883
PR08  12700.531000    -83.876961 -22070.292633    -50.289185
PR09   3649.268919  21621.569882 -12967.666260    114.181676
PR11  14946.913730  11307.159701  17293.713528    -11.785036
PR12   9500.193901  -5409.834078  23069.230370    101.425082
PR13  -1846.433150 -20044.987658  15644.480728    -34.179122
PR14 -11642.956314 -22682.751009   -885.144240     47.623069
PR15 -14846.695145 -12237.608945 -16725.977549    105.808055
PR16  -9265.241546   6224.803941 -22965.092736     -1.246636
PR17 -11824.125527 -10082.047109 -20201.158843    296.808439
PR18 -24063.043842  -4914.069074  -6977.017063     23.389728
PR19 -23506.400580   2105.890301   9685.474653    -76.622160
PR20  -7985.085114   9278.593576  22400.899285   -402.830976
PR21  12698.270415   9899.080823  19800.729963   -101.667096
PR22  24797.468886   3829.342199   4230.487861    -11.965065
PR23  19846.632648  -5297.308044 -15121.334248    283.209968
PR26 -11946.582057   8508.021888  20879.049888   -409.635530
EOF
